{"version":"20200608155523","data":{"hot-city":[{"code":"370100","value":"全国","hassub":0},{"code":"010000","value":"北京","hassub":0},{"code":"070200","value":"深圳","hassub":0},{"code":"070100","value":"广州","hassub":0},{"code":"230100","value":"海口","hassub":0},{"code":"030000","value":"上海","hassub":0},{"code":"050100","value":"杭州","hassub":0},{"code":"100100","value":"成都","hassub":0},{"code":"061100","value":"苏州","hassub":0},{"code":"020000","value":"天津","hassub":0},{"code":"300100","value":"武汉","hassub":0}],"area":[{"code":"010000","value":"北京","pinyin":"Beijing","parent_id":"0"},{"code":"020000","value":"天津","pinyin":"Tianjin","parent_id":"0"},{"code":"030000","value":"上海","pinyin":"Shanghai","parent_id":"0"},{"code":"040000","value":"重庆","pinyin":"Chongqing","parent_id":"0"},{"code":"050000","value":"浙江","pinyin":"Zhejiang","parent_id":"0"},{"code":"060000","value":"江苏","pinyin":"Jiangsu","parent_id":"0"},{"code":"070000","value":"广东","pinyin":"Guangdong","parent_id":"0"},{"code":"080000","value":"湖南","pinyin":"Hunan","parent_id":"0"},{"code":"090000","value":"福建","pinyin":"Fujian","parent_id":"0"},{"code":"100000","value":"四川","pinyin":"Sichuan","parent_id":"0"},{"code":"110000","value":"贵州","pinyin":"Guizhou","parent_id":"0"},{"code":"120000","value":"河北","pinyin":"Hebei","parent_id":"0"},{"code":"130000","value":"河南","pinyin":"Henan","parent_id":"0"},{"code":"140000","value":"吉林","pinyin":"Jilin","parent_id":"0"},{"code":"150000","value":"江西","pinyin":"Jiangxi","parent_id":"0"},{"code":"160000","value":"辽宁","pinyin":"Liaoning","parent_id":"0"},{"code":"170000","value":"青海","pinyin":"Qinghai","parent_id":"0"},{"code":"180000","value":"山东","pinyin":"Shandong","parent_id":"0"},{"code":"190000","value":"山西","pinyin":"Shanxi","parent_id":"0"},{"code":"200000","value":"陕西","pinyin":"Shanxi","parent_id":"0"},{"code":"210000","value":"云南","pinyin":"Yunnan","parent_id":"0"},{"code":"220000","value":"广西","pinyin":"Guangxi","parent_id":"0"},{"code":"230000","value":"海南","pinyin":"Hainan","parent_id":"0"},{"code":"240000","value":"黑龙江","pinyin":"Heilongjiang","parent_id":"0"},{"code":"250000","value":"宁夏","pinyin":"Ningxia","parent_id":"0"},{"code":"260000","value":"新疆","pinyin":"Xinjiang","parent_id":"0"},{"code":"270000","value":"西藏","pinyin":"Tibet","parent_id":"0"},{"code":"280000","value":"内蒙古","pinyin":"NeiMengGu","parent_id":"0"},{"code":"290000","value":"香港","pinyin":"XiangGang","parent_id":"0"},{"code":"300000","value":"湖北","pinyin":"Hubei","parent_id":"0"},{"code":"310000","value":"澳门","pinyin":"AoMen","parent_id":"0"},{"code":"330000","value":"台湾","pinyin":"Taiwan","parent_id":"0"},{"code":"350000","value":"安徽","pinyin":"Anhui","parent_id":"0"},{"code":"360000","value":"甘肃","pinyin":"Gansu","parent_id":"0"},{"code":"370000","value":"全国","pinyin":"QuanGuo","parent_id":"0"},{"code":"320000","value":"国外","pinyin":"GuoWai","parent_id":"0"},{"code":"010100","value":"东城区","pinyin":"Dongcheng","parent_id":"010000"},{"code":"010200","value":"西城区","pinyin":"Xicheng","parent_id":"010000"},{"code":"010300","value":"崇文区","pinyin":"Chongwen","parent_id":"010000"},{"code":"010400","value":"宣武区","pinyin":"Xuanwu","parent_id":"010000"},{"code":"010500","value":"朝阳区","pinyin":"Chaoyang","parent_id":"010000"},{"code":"010600","value":"海淀区","pinyin":"Haidian","parent_id":"010000"},{"code":"010700","value":"丰台区","pinyin":"Fengtai","parent_id":"010000"},{"code":"010800","value":"石景山区","pinyin":"Shijingshan","parent_id":"010000"},{"code":"010900","value":"门头沟区","pinyin":"Mentougou","parent_id":"010000"},{"code":"011000","value":"房山区","pinyin":"Fangshan","parent_id":"010000"},{"code":"011100","value":"通州区","pinyin":"Tongzhou","parent_id":"010000"},{"code":"011200","value":"顺义区","pinyin":"Shunyi","parent_id":"010000"},{"code":"011300","value":"昌平区","pinyin":"Changping","parent_id":"010000"},{"code":"011400","value":"大兴区","pinyin":"Daxing","parent_id":"010000"},{"code":"011500","value":"平谷区","pinyin":"Pinggu","parent_id":"010000"},{"code":"011600","value":"怀柔区","pinyin":"Huairou","parent_id":"010000"},{"code":"011700","value":"延庆","pinyin":"Yanqing","parent_id":"010000"},{"code":"011800","value":"密云","pinyin":"Miyun","parent_id":"010000"},{"code":"020100","value":"和平区","pinyin":"Heping","parent_id":"020000"},{"code":"020200","value":"河东区","pinyin":"Hedong","parent_id":"020000"},{"code":"020300","value":"河西区","pinyin":"Hexi","parent_id":"020000"},{"code":"020400","value":"南开区","pinyin":"Nankai","parent_id":"020000"},{"code":"020500","value":"河北区","pinyin":"Hebei","parent_id":"020000"},{"code":"020600","value":"红桥区","pinyin":"Hongqiao","parent_id":"020000"},{"code":"020700","value":"塘沽区","pinyin":"Tanggu","parent_id":"020000"},{"code":"020800","value":"汉沽区","pinyin":"Hangu","parent_id":"020000"},{"code":"021800","value":"宝坻区","pinyin":"Baodi","parent_id":"020000"},{"code":"020900","value":"大港区","pinyin":"Dagang","parent_id":"020000"},{"code":"021000","value":"东丽区","pinyin":"Dongli","parent_id":"020000"},{"code":"021100","value":"西青区","pinyin":"Xiqing","parent_id":"020000"},{"code":"021200","value":"津南区","pinyin":"Jinlan","parent_id":"020000"},{"code":"021300","value":"北辰区","pinyin":"Beichen","parent_id":"020000"},{"code":"021400","value":"武清区","pinyin":"Wuqing","parent_id":"020000"},{"code":"021500","value":"宁和","pinyin":"Ninghe","parent_id":"020000"},{"code":"021600","value":"静海","pinyin":"Jinghai","parent_id":"020000"},{"code":"021700","value":"蓟县","pinyin":"Jixian","parent_id":"020000"},{"code":"021900","value":"滨海新区","pinyin":"Binhai","parent_id":"020000"},{"code":"030100","value":"黄浦区","pinyin":"Huangpu","parent_id":"030000"},{"code":"030200","value":"卢湾区","pinyin":"Luwan","parent_id":"030000"},{"code":"030300","value":"徐汇区","pinyin":"Xuhui","parent_id":"030000"},{"code":"030400","value":"杨浦区","pinyin":"Yangpu","parent_id":"030000"},{"code":"030500","value":"长宁区","pinyin":"Changning","parent_id":"030000"},{"code":"030600","value":"静安区","pinyin":"Jingan","parent_id":"030000"},{"code":"030700","value":"普陀区","pinyin":"Putuo","parent_id":"030000"},{"code":"030800","value":"闸北区","pinyin":"Zhabei","parent_id":"030000"},{"code":"030900","value":"虹口区","pinyin":"Hongkou","parent_id":"030000"},{"code":"031000","value":"浦东新区","pinyin":"Pudong","parent_id":"030000"},{"code":"031100","value":"宝山区","pinyin":"Baoshan","parent_id":"030000"},{"code":"031200","value":"嘉定区","pinyin":"Jiading","parent_id":"030000"},{"code":"031300","value":"闵行区","pinyin":"Minhang","parent_id":"030000"},{"code":"031400","value":"金山区","pinyin":"Jinshan","parent_id":"030000"},{"code":"031500","value":"松江区","pinyin":"Songjiang","parent_id":"030000"},{"code":"031600","value":"青浦区","pinyin":"Qingpu","parent_id":"030000"},{"code":"031700","value":"奉贤区","pinyin":"Fengxian","parent_id":"030000"},{"code":"031800","value":"南汇区","pinyin":"Nanhui","parent_id":"030000"},{"code":"031900","value":"崇明","pinyin":"Chongming","parent_id":"030000"},{"code":"040700","value":"渝中区","pinyin":"Yuzhong","parent_id":"040000"},{"code":"040800","value":"九龙坡区","pinyin":"Jiulongpo","parent_id":"040000"},{"code":"040900","value":"沙坪坝区","pinyin":"Shanpingba","parent_id":"040000"},{"code":"041000","value":"南岸区","pinyin":"Nan an","parent_id":"040000"},{"code":"041100","value":"江北区","pinyin":"Jiangbei","parent_id":"040000"},{"code":"041200","value":"大渡口区","pinyin":"Dadukou","parent_id":"040000"},{"code":"040100","value":"渝北区","pinyin":"Yubei","parent_id":"040000"},{"code":"040200","value":"巴南区","pinyin":"Ba nan","parent_id":"040000"},{"code":"040300","value":"永川区","pinyin":"Yongchuan","parent_id":"040000"},{"code":"040400","value":"南川区","pinyin":"Nanchuan","parent_id":"040000"},{"code":"040500","value":"江津区","pinyin":"Jiangjin","parent_id":"040000"},{"code":"040600","value":"合川区","pinyin":"Hechuan","parent_id":"040000"},{"code":"041300","value":"北碚区","pinyin":"Beibei","parent_id":"040000"},{"code":"041400","value":"长寿区","pinyin":"Changshou","parent_id":"040000"},{"code":"041500","value":"万盛区","pinyin":"Wansheng","parent_id":"040000"},{"code":"041600","value":"双桥区","pinyin":"Shuangqiao","parent_id":"040000"},{"code":"041700","value":"涪陵区","pinyin":"Fuling","parent_id":"040000"},{"code":"041800","value":"万州区","pinyin":"Wanzhou","parent_id":"040000"},{"code":"041900","value":"黔江区","pinyin":"Qianjiang","parent_id":"040000"},{"code":"050100","value":"杭州","pinyin":"Hangzhou","parent_id":"050000"},{"code":"050200","value":"宁波","pinyin":"Ningbo","parent_id":"050000"},{"code":"050300","value":"温州","pinyin":"Wenzhou","parent_id":"050000"},{"code":"050400","value":"嘉兴","pinyin":"Jiaxing","parent_id":"050000"},{"code":"050500","value":"台州","pinyin":"Taizhou","parent_id":"050000"},{"code":"050600","value":"金华","pinyin":"Jinhua","parent_id":"050000"},{"code":"050700","value":"绍兴","pinyin":"Shaoxing","parent_id":"050000"},{"code":"050800","value":"湖州","pinyin":"Huzhou","parent_id":"050000"},{"code":"050900","value":"丽水","pinyin":"Lishui","parent_id":"050000"},{"code":"051000","value":"衢州","pinyin":"Quzhou","parent_id":"050000"},{"code":"051100","value":"舟山","pinyin":"Zhoushan","parent_id":"050000"},{"code":"290100","value":"香港","pinyin":"Hongkong","parent_id":"290000"},{"code":"310100","value":"澳门","pinyin":"Macao","parent_id":"310000"},{"code":"350100","value":"合肥","pinyin":"Hefei","parent_id":"350000"},{"code":"350200","value":"蚌埠","pinyin":"Bengbu","parent_id":"350000"},{"code":"350300","value":"淮北","pinyin":"Huaibei","parent_id":"350000"},{"code":"350400","value":"亳州","pinyin":"Bozhou","parent_id":"350000"},{"code":"350500","value":"黄山","pinyin":"Huangshan","parent_id":"350000"},{"code":"350600","value":"铜陵","pinyin":"Tongling","parent_id":"350000"},{"code":"350700","value":"安庆","pinyin":"Anqing","parent_id":"350000"},{"code":"350800","value":"淮南","pinyin":"Huainan","parent_id":"350000"},{"code":"350900","value":"宿州","pinyin":"Suzhou","parent_id":"350000"},{"code":"351000","value":"阜阳","pinyin":"Fuyang","parent_id":"350000"},{"code":"351100","value":"六安","pinyin":"Liu an","parent_id":"350000"},{"code":"351200","value":"滁州","pinyin":"Chuzhou","parent_id":"350000"},{"code":"351300","value":"宣城","pinyin":"Xuancheng","parent_id":"350000"},{"code":"351400","value":"马鞍山","pinyin":"Ma an shan","parent_id":"350000"},{"code":"351500","value":"芜湖","pinyin":"Wuhu","parent_id":"350000"},{"code":"351600","value":"巢湖","pinyin":"Chaohu","parent_id":"350000"},{"code":"090100","value":"福州","pinyin":"Fuzhou","parent_id":"090000"},{"code":"090200","value":"三明","pinyin":"Sanming","parent_id":"090000"},{"code":"090300","value":"南平","pinyin":"Nanping","parent_id":"090000"},{"code":"090400","value":"莆田","pinyin":"Putian","parent_id":"090000"},{"code":"090500","value":"宁德","pinyin":"Ningde","parent_id":"090000"},{"code":"090600","value":"厦门","pinyin":"Xiamen","parent_id":"090000"},{"code":"090700","value":"泉州","pinyin":"Quanzhou","parent_id":"090000"},{"code":"090800","value":"龙岩","pinyin":"Longyan","parent_id":"090000"},{"code":"090900","value":"漳州","pinyin":"Zhangzhou","parent_id":"090000"},{"code":"360100","value":"兰州","pinyin":"Lanzhou","parent_id":"360000"},{"code":"360200","value":"平凉","pinyin":"Pingliang","parent_id":"360000"},{"code":"360300","value":"天水","pinyin":"Tianshui","parent_id":"360000"},{"code":"360400","value":"临夏","pinyin":"Linxia","parent_id":"360000"},{"code":"360500","value":"白银","pinyin":"Baiyin","parent_id":"360000"},{"code":"360600","value":"庆阳","pinyin":"Qingyang","parent_id":"360000"},{"code":"360700","value":"张掖","pinyin":"Zhangye","parent_id":"360000"},{"code":"360800","value":"武威","pinyin":"wuwei","parent_id":"360000"},{"code":"360900","value":"嘉峪关","pinyin":"Jiayuguan","parent_id":"360000"},{"code":"361000","value":"酒泉","pinyin":"Jiuquan","parent_id":"360000"},{"code":"361100","value":"金昌","pinyin":"Jinchang","parent_id":"360000"},{"code":"361200","value":"陇南","pinyin":"Longnan","parent_id":"360000"},{"code":"070100","value":"广州","pinyin":"Guangzhou","parent_id":"070000"},{"code":"070200","value":"深圳","pinyin":"Shenzhen","parent_id":"070000"},{"code":"071900","value":"珠海","pinyin":"Zhuhai","parent_id":"070000"},{"code":"070300","value":"韶关","pinyin":"Shaoguan","parent_id":"070000"},{"code":"070400","value":"肇庆","pinyin":"Zhaoqing","parent_id":"070000"},{"code":"070500","value":"东莞","pinyin":"Dongguan","parent_id":"070000"},{"code":"070600","value":"茂名","pinyin":"Maoming","parent_id":"070000"},{"code":"070700","value":"汕头","pinyin":"Shantou","parent_id":"070000"},{"code":"070800","value":"中山","pinyin":"Zhongshan","parent_id":"070000"},{"code":"070900","value":"梅州","pinyin":"Meizhou","parent_id":"070000"},{"code":"071000","value":"佛山","pinyin":"Foshan","parent_id":"070000"},{"code":"071100","value":"惠州","pinyin":"Huizhou","parent_id":"070000"},{"code":"071200","value":"阳江","pinyin":"Yangjiang","parent_id":"070000"},{"code":"071300","value":"潮州","pinyin":"Chaozhou","parent_id":"070000"},{"code":"071400","value":"江门","pinyin":"Jiangmen","parent_id":"070000"},{"code":"071500","value":"河源","pinyin":"Heyuan","parent_id":"070000"},{"code":"071600","value":"汕尾","pinyin":"Shanwei","parent_id":"070000"},{"code":"071700","value":"清远","pinyin":"Qingyuan","parent_id":"070000"},{"code":"071800","value":"湛江","pinyin":"Zhanjiang","parent_id":"070000"},{"code":"210100","value":"昆明","pinyin":"Kunming","parent_id":"210000"},{"code":"210200","value":"文山","pinyin":"Wenshan","parent_id":"210000"},{"code":"210300","value":"昭通","pinyin":"Zhaotong","parent_id":"210000"},{"code":"210400","value":"德宏","pinyin":"Dehong","parent_id":"210000"},{"code":"210500","value":"曲靖","pinyin":"Qujing","parent_id":"210000"},{"code":"210600","value":"西双版纳","pinyin":"Xishuangbanna","parent_id":"210000"},{"code":"210700","value":"普洱","pinyin":"Pu er","parent_id":"210000"},{"code":"210800","value":"迪庆","pinyin":"Diqing","parent_id":"210000"},{"code":"210900","value":"保山","pinyin":"Baoshan","parent_id":"210000"},{"code":"211000","value":"玉溪","pinyin":"Yuxi","parent_id":"210000"},{"code":"211100","value":"临沧","pinyin":"Lincang","parent_id":"210000"},{"code":"211200","value":"大理","pinyin":"Dali","parent_id":"210000"},{"code":"211300","value":"丽江","pinyin":"Lijiang","parent_id":"210000"},{"code":"211400","value":"楚雄","pinyin":"Chuxiong","parent_id":"210000"},{"code":"211500","value":"中甸","pinyin":"Zhongdian","parent_id":"210000"},{"code":"211600","value":"红河","pinyin":"Honghe","parent_id":"210000"},{"code":"211700","value":"怒江","pinyin":"Nujiang","parent_id":"210000"},{"code":"100100","value":"成都","pinyin":"Chengdu","parent_id":"100000"},{"code":"100200","value":"资阳","pinyin":"Ziyang","parent_id":"100000"},{"code":"100300","value":"阿坝","pinyin":"A ba","parent_id":"100000"},{"code":"100400","value":"凉山","pinyin":"Liangzhou","parent_id":"100000"},{"code":"100500","value":"南充","pinyin":"Nanchong","parent_id":"100000"},{"code":"100600","value":"乐山","pinyin":"Leshan","parent_id":"100000"},{"code":"100700","value":"达州","pinyin":"Dazhou","parent_id":"100000"},{"code":"100800","value":"德阳","pinyin":"Deyang","parent_id":"100000"},{"code":"100900","value":"内江","pinyin":"Neijiang","parent_id":"100000"},{"code":"101000","value":"攀枝花","pinyin":"Panzhihua","parent_id":"100000"},{"code":"101100","value":"广安","pinyin":"Guang an","parent_id":"100000"},{"code":"101200","value":"雅安","pinyin":"Ya an","parent_id":"100000"},{"code":"101300","value":"宜宾","pinyin":"Yibin","parent_id":"100000"},{"code":"101400","value":"绵阳","pinyin":"Mianyang","parent_id":"100000"},{"code":"101500","value":"自贡","pinyin":"Zigong","parent_id":"100000"},{"code":"101600","value":"遂宁","pinyin":"Suining","parent_id":"100000"},{"code":"101700","value":"广元","pinyin":"Guangyuan","parent_id":"100000"},{"code":"101800","value":"泸州","pinyin":"Luzhou","parent_id":"100000"},{"code":"230100","value":"海口","pinyin":"Haikou","parent_id":"230000"},{"code":"230200","value":"陵水","pinyin":"Lingshui","parent_id":"230000"},{"code":"230300","value":"三亚","pinyin":"Sanya","parent_id":"230000"},{"code":"230400","value":"儋州","pinyin":"Danzhou","parent_id":"230000"},{"code":"110100","value":"贵阳","pinyin":"Guiyang","parent_id":"110000"},{"code":"110200","value":"铜仁","pinyin":"Tongren","parent_id":"110000"},{"code":"110300","value":"黔东南","pinyin":"Qiandongnan","parent_id":"110000"},{"code":"110400","value":"黔南","pinyin":"Qian nan","parent_id":"110000"},{"code":"110500","value":"安顺","pinyin":"An shun","parent_id":"110000"},{"code":"110600","value":"黔西南","pinyin":"Qianxi","parent_id":"110000"},{"code":"110700","value":"遵义","pinyin":"Zunyi","parent_id":"110000"},{"code":"110800","value":"毕节","pinyin":"Bijie","parent_id":"110000"},{"code":"110900","value":"六盘水","pinyin":"Liupanshui","parent_id":"110000"},{"code":"120100","value":"石家庄","pinyin":"Shijiazhuang","parent_id":"120000"},{"code":"120200","value":"唐山","pinyin":"Tangshan","parent_id":"120000"},{"code":"120300","value":"衡水","pinyin":"Hengshui","parent_id":"120000"},{"code":"120400","value":"承德","pinyin":"Chengde","parent_id":"120000"},{"code":"120500","value":"保定","pinyin":"Baoding","parent_id":"120000"},{"code":"120600","value":"邢台","pinyin":"Xingtai","parent_id":"120000"},{"code":"120700","value":"沧州","pinyin":"Cangzhou","parent_id":"120000"},{"code":"120800","value":"张家口","pinyin":"Zhangjiakou","parent_id":"120000"},{"code":"120900","value":"邯郸","pinyin":"Handan","parent_id":"120000"},{"code":"121000","value":"廊坊","pinyin":"Langfang","parent_id":"120000"},{"code":"121100","value":"秦皇岛","pinyin":"Qinhuangdao","parent_id":"120000"},{"code":"130100","value":"郑州","pinyin":"Zhengzhou","parent_id":"130000"},{"code":"130200","value":"周口","pinyin":"Zhoukou","parent_id":"130000"},{"code":"130300","value":"安阳","pinyin":"An yang","parent_id":"130000"},{"code":"130400","value":"焦作","pinyin":"Jiaozuo","parent_id":"130000"},{"code":"130500","value":"洛阳","pinyin":"Luoyang","parent_id":"130000"},{"code":"130600","value":"濮阳","pinyin":"Puyang","parent_id":"130000"},{"code":"130700","value":"南阳","pinyin":"Nanyang","parent_id":"130000"},{"code":"130800","value":"鹤壁","pinyin":"Hebi","parent_id":"130000"},{"code":"130900","value":"漯河","pinyin":"Luohe","parent_id":"130000"},{"code":"131000","value":"商丘","pinyin":"Shangqiu","parent_id":"130000"},{"code":"131100","value":"许昌","pinyin":"Xuchang","parent_id":"130000"},{"code":"131200","value":"开封","pinyin":"Kaifeng","parent_id":"130000"},{"code":"131300","value":"信阳","pinyin":"Xinyang","parent_id":"130000"},{"code":"131400","value":"新乡","pinyin":"Xinxiang","parent_id":"130000"},{"code":"131500","value":"三门峡","pinyin":"Sanmenxia","parent_id":"130000"},{"code":"131600","value":"驻马店","pinyin":"Zhumadian","parent_id":"130000"},{"code":"131700","value":"平顶山","pinyin":"Pingdingshan","parent_id":"130000"},{"code":"300100","value":"武汉","pinyin":"Wuhan","parent_id":"300000"},{"code":"300200","value":"荆门","pinyin":"Jingmen","parent_id":"300000"},{"code":"300300","value":"十堰","pinyin":"Shiyan","parent_id":"300000"},{"code":"300400","value":"黄冈","pinyin":"Huanggang","parent_id":"300000"},{"code":"300500","value":"恩施","pinyin":"En shi","parent_id":"300000"},{"code":"300600","value":"天门","pinyin":"Tianmen","parent_id":"300000"},{"code":"300700","value":"鄂州","pinyin":"E zhou","parent_id":"300000"},{"code":"300800","value":"神农架","pinyin":"Shennongjia","parent_id":"300000"},{"code":"300900","value":"襄阳","pinyin":"Xiangyang","parent_id":"300000"},{"code":"301000","value":"咸宁","pinyin":"Xianning","parent_id":"300000"},{"code":"301100","value":"随州","pinyin":"Suizhou","parent_id":"300000"},{"code":"301200","value":"仙桃","pinyin":"Xiantao","parent_id":"300000"},{"code":"301300","value":"潜江","pinyin":"Qianjiang","parent_id":"300000"},{"code":"301400","value":"孝感","pinyin":"Xiaogan","parent_id":"300000"},{"code":"301500","value":"黄石","pinyin":"Huangshi","parent_id":"300000"},{"code":"301600","value":"宜昌","pinyin":"Yichang","parent_id":"300000"},{"code":"080100","value":"长沙","pinyin":"Changsha","parent_id":"080000"},{"code":"080200","value":"张家界","pinyin":"Zhangjiajie","parent_id":"080000"},{"code":"080300","value":"永州","pinyin":"Yongzhou","parent_id":"080000"},{"code":"080400","value":"郴州","pinyin":"Chenzhou","parent_id":"080000"},{"code":"080500","value":"湘西","pinyin":"Xiangxi","parent_id":"080000"},{"code":"080600","value":"湘潭","pinyin":"Xiangtan","parent_id":"080000"},{"code":"080700","value":"娄底","pinyin":"Loudi","parent_id":"080000"},{"code":"080800","value":"益阳","pinyin":"Yiyang","parent_id":"080000"},{"code":"080900","value":"怀化","pinyin":"Huaihua","parent_id":"080000"},{"code":"081000","value":"株洲","pinyin":"Zhuzhou","parent_id":"080000"},{"code":"081100","value":"衡阳","pinyin":"Hengyang","parent_id":"080000"},{"code":"081200","value":"岳阳","pinyin":"Yueyang","parent_id":"080000"},{"code":"081300","value":"邵阳","pinyin":"Shaoyang","parent_id":"080000"},{"code":"081400","value":"常德","pinyin":"Changde ","parent_id":"080000"},{"code":"060100","value":"南京","pinyin":"Nanjing","parent_id":"060000"},{"code":"060200","value":"徐州","pinyin":"Xuzhou","parent_id":"060000"},{"code":"060300","value":"南通","pinyin":"Nantong","parent_id":"060000"},{"code":"060400","value":"镇江","pinyin":"Zhenjiang","parent_id":"060000"},{"code":"060500","value":"连云港","pinyin":"Lianyungang","parent_id":"060000"},{"code":"060600","value":"常州","pinyin":"Changzhou","parent_id":"060000"},{"code":"060700","value":"宿迁","pinyin":"Suqian","parent_id":"060000"},{"code":"060800","value":"淮安","pinyin":"Huai an","parent_id":"060000"},{"code":"060900","value":"无锡","pinyin":"Wuxi","parent_id":"060000"},{"code":"061000","value":"盐城","pinyin":"Yancheng","parent_id":"060000"},{"code":"061100","value":"苏州","pinyin":"Suzhou","parent_id":"060000"},{"code":"061200","value":"泰州","pinyin":"Taizhou","parent_id":"060000"},{"code":"061300","value":"扬州","pinyin":"Yangzhou","parent_id":"060000"},{"code":"150100","value":"南昌","pinyin":"Nanchang","parent_id":"150000"},{"code":"150200","value":"萍乡","pinyin":"Pingxiang","parent_id":"150000"},{"code":"150300","value":"景德镇","pinyin":"Jingdezhen","parent_id":"150000"},{"code":"150400","value":"吉安","pinyin":"Ji an","parent_id":"150000"},{"code":"150500","value":"鹰潭","pinyin":"Yingtan","parent_id":"150000"},{"code":"150600","value":"九江","pinyin":"Jiujiang","parent_id":"150000"},{"code":"150700","value":"抚州","pinyin":"Fuzhou","parent_id":"150000"},{"code":"150800","value":"新余","pinyin":"Xinyu","parent_id":"150000"},{"code":"150900","value":"上饶","pinyin":"Shangrao","parent_id":"150000"},{"code":"151000","value":"赣州","pinyin":"Ganzhou","parent_id":"150000"},{"code":"140100","value":"长春","pinyin":"Changchun","parent_id":"140000"},{"code":"140200","value":"白城","pinyin":"Baicheng","parent_id":"140000"},{"code":"140300","value":"吉林","pinyin":"Jinlin","parent_id":"140000"},{"code":"140400","value":"四平","pinyin":"Siping","parent_id":"140000"},{"code":"140500","value":"辽源","pinyin":"Liaoyuan","parent_id":"140000"},{"code":"140600","value":"白山","pinyin":"Baishan","parent_id":"140000"},{"code":"140700","value":"通化","pinyin":"Tonghua","parent_id":"140000"},{"code":"140800","value":"松原","pinyin":"Songyuan","parent_id":"140000"},{"code":"160100","value":"沈阳","pinyin":"Shenyang","parent_id":"160000"},{"code":"160200","value":"本溪","pinyin":"Benxi","parent_id":"160000"},{"code":"160300","value":"辽阳","pinyin":"Liaoyang","parent_id":"160000"},{"code":"160400","value":"丹东","pinyin":"Dandong","parent_id":"160000"},{"code":"160500","value":"铁岭","pinyin":"Tieling","parent_id":"160000"},{"code":"160600","value":"锦州","pinyin":"Jinzhou","parent_id":"160000"},{"code":"160700","value":"抚顺","pinyin":"Fushun","parent_id":"160000"},{"code":"160800","value":"葫芦岛","pinyin":"Huludao","parent_id":"160000"},{"code":"160900","value":"鞍山","pinyin":"An shan","parent_id":"160000"},{"code":"161000","value":"朝阳","pinyin":"Chaoyang","parent_id":"160000"},{"code":"161100","value":"营口","pinyin":"Yingkou","parent_id":"160000"},{"code":"161200","value":"阜新","pinyin":"Fuxin","parent_id":"160000"},{"code":"161300","value":"大连","pinyin":"Dalian","parent_id":"160000"},{"code":"161400","value":"盘锦","pinyin":"Panjin","parent_id":"160000"},{"code":"170100","value":"西宁","pinyin":"Xining","parent_id":"170000"},{"code":"170200","value":"海东地区","pinyin":"Haidong","parent_id":"170000"},{"code":"170300","value":"黄南","pinyin":"Huangnan","parent_id":"170000"},{"code":"170400","value":"海南","pinyin":"Hainan","parent_id":"170000"},{"code":"170500","value":"果洛","pinyin":"Guoluo","parent_id":"170000"},{"code":"170600","value":"玉树","pinyin":"Yushu","parent_id":"170000"},{"code":"170700","value":"海西","pinyin":"Haixi","parent_id":"170000"},{"code":"170800","value":"海北","pinyin":"Haibei","parent_id":"170000"},{"code":"180100","value":"济南","pinyin":"Ji nan","parent_id":"180000"},{"code":"180200","value":"烟台","pinyin":"Yantai","parent_id":"180000"},{"code":"180300","value":"日照","pinyin":"Rizhao","parent_id":"180000"},{"code":"180400","value":"潍坊","pinyin":"Weifang","parent_id":"180000"},{"code":"180500","value":"青岛","pinyin":"Qingdao","parent_id":"180000"},{"code":"180600","value":"临沂","pinyin":"Linyi","parent_id":"180000"},{"code":"180700","value":"淄博","pinyin":"Zibo","parent_id":"180000"},{"code":"180800","value":"莱芜","pinyin":"Laiwu","parent_id":"180000"},{"code":"180900","value":"聊城","pinyin":"Liaocheng","parent_id":"180000"},{"code":"181000","value":"威海","pinyin":"Weihai","parent_id":"180000"},{"code":"181100","value":"枣庄","pinyin":"zaozhuang","parent_id":"180000"},{"code":"181200","value":"济宁","pinyin":"Jining","parent_id":"180000"},{"code":"181300","value":"德州","pinyin":"Dezhou","parent_id":"180000"},{"code":"181400","value":"泰安","pinyin":"Tai an","parent_id":"180000"},{"code":"181500","value":"菏泽","pinyin":"Heze","parent_id":"180000"},{"code":"181600","value":"滨州","pinyin":"Binzhou","parent_id":"180000"},{"code":"190100","value":"太原","pinyin":"Taiyuan","parent_id":"190000"},{"code":"190200","value":"晋城","pinyin":"Jincheng","parent_id":"190000"},{"code":"190300","value":"晋中","pinyin":"Jinzhong","parent_id":"190000"},{"code":"190400","value":"忻州","pinyin":"Xinzhou","parent_id":"190000"},{"code":"190500","value":"大同","pinyin":"Datong","parent_id":"190000"},{"code":"190600","value":"临汾","pinyin":"Linfen","parent_id":"190000"},{"code":"190700","value":"运城","pinyin":"Yuncheng","parent_id":"190000"},{"code":"190800","value":"阳泉","pinyin":"Yangquan","parent_id":"190000"},{"code":"190900","value":"长治","pinyin":"Changzhi","parent_id":"190000"},{"code":"200100","value":"西安","pinyin":"Xi an","parent_id":"200000"},{"code":"200200","value":"咸阳","pinyin":"Xianyang","parent_id":"200000"},{"code":"200300","value":"延安","pinyin":"Yan an","parent_id":"200000"},{"code":"200400","value":"渭南","pinyin":"Weinan","parent_id":"200000"},{"code":"200500","value":"榆林","pinyin":"Yulin","parent_id":"200000"},{"code":"200600","value":"安康","pinyin":"An kang","parent_id":"200000"},{"code":"200700","value":"宝鸡","pinyin":"Baoji","parent_id":"200000"},{"code":"200800","value":"汉中","pinyin":"Hanzhong","parent_id":"200000"},{"code":"200900","value":"铜川","pinyin":"Tongchuan","parent_id":"200000"},{"code":"240200","value":"哈尔滨","pinyin":"Ha erbing","parent_id":"240000"},{"code":"240100","value":"伊春","pinyin":"Yichun","parent_id":"240000"},{"code":"240300","value":"牡丹江","pinyin":"Mudanjiang","parent_id":"240000"},{"code":"240400","value":"佳木斯","pinyin":"Jiamusi","parent_id":"240000"},{"code":"240500","value":"七台河","pinyin":"Qitaihe","parent_id":"240000"},{"code":"181800","value":"东昌府区","pinyin":"Dongchangfu","parent_id":"180000"},{"code":"181900","value":"阳谷","pinyin":"Yanggu","parent_id":"180000"},{"code":"182000","value":"莘县","pinyin":"Shenxian","parent_id":"180000"},{"code":"182100","value":"茌平","pinyin":"Chiping","parent_id":"180000"},{"code":"182200","value":"东阿","pinyin":"Dong e","parent_id":"180000"},{"code":"182300","value":"冠县","pinyin":"Guanxian","parent_id":"180000"},{"code":"182400","value":"高唐","pinyin":"Gaotang","parent_id":"180000"},{"code":"240600","value":"绥化","pinyin":"Suihua","parent_id":"240000"},{"code":"240700","value":"齐齐哈尔","pinyin":"Qiqiha er","parent_id":"240000"},{"code":"240800","value":"鸡西","pinyin":"Jixi","parent_id":"240000"},{"code":"240900","value":"大兴安岭","pinyin":"Daxin anling","parent_id":"240000"},{"code":"241000","value":"大庆","pinyin":"Daqing","parent_id":"240000"},{"code":"241100","value":"鹤岗","pinyin":"Hegang","parent_id":"240000"},{"code":"241200","value":"黑河","pinyin":"Heihe","parent_id":"240000"},{"code":"241300","value":"双鸭山","pinyin":"Shuangyashan","parent_id":"240000"},{"code":"250100","value":"银川","pinyin":"Yinchuan","parent_id":"250000"},{"code":"250200","value":"固原","pinyin":"Guyuan","parent_id":"250000"},{"code":"250300","value":"石嘴山","pinyin":"Shizuishan","parent_id":"250000"},{"code":"250400","value":"吴忠","pinyin":"Wuzhong","parent_id":"250000"},{"code":"220100","value":"南宁","pinyin":"Nanning","parent_id":"220000"},{"code":"220200","value":"河池","pinyin":"Hechi","parent_id":"220000"},{"code":"220300","value":"来宾","pinyin":"Laibin","parent_id":"220000"},{"code":"220400","value":"百色","pinyin":"Baise","parent_id":"220000"},{"code":"220500","value":"崇左","pinyin":"Chongzuo","parent_id":"220000"},{"code":"220600","value":"钦州","pinyin":"Qinzhou","parent_id":"220000"},{"code":"220700","value":"北海","pinyin":"Beihai","parent_id":"220000"},{"code":"220800","value":"桂林","pinyin":"Guilin","parent_id":"220000"},{"code":"220900","value":"玉林","pinyin":"Yulin","parent_id":"220000"},{"code":"221000","value":"柳州","pinyin":"Liuzhou","parent_id":"220000"},{"code":"221100","value":"梧州","pinyin":"Wuzhou","parent_id":"220000"},{"code":"260100","value":"乌鲁木齐","pinyin":"Wulumuqi","parent_id":"260000"},{"code":"260200","value":"哈密","pinyin":"Hami","parent_id":"260000"},{"code":"260300","value":"克拉玛依","pinyin":"Kalamayi","parent_id":"260000"},{"code":"260400","value":"和田","pinyin":"Hetian","parent_id":"260000"},{"code":"260500","value":"石河子","pinyin":"Shihezi","parent_id":"260000"},{"code":"260600","value":"阿克苏","pinyin":"Akesu","parent_id":"260000"},{"code":"260700","value":"伊犁","pinyin":"Yilihasake","parent_id":"260000"},{"code":"260800","value":"博尔塔拉","pinyin":"Bo ertala menggu","parent_id":"260000"},{"code":"260900","value":"克孜勒苏","pinyin":"Kezilesu Ke erkezi ","parent_id":"260000"},{"code":"261000","value":"吐鲁番","pinyin":"Tulufan","parent_id":"260000"},{"code":"261100","value":"塔城","pinyin":"Tacheng","parent_id":"260000"},{"code":"261200","value":"昌吉","pinyin":"Changji","parent_id":"260000"},{"code":"261300","value":"巴音郭楞","pinyin":"Bayin gholin Mongol","parent_id":"260000"},{"code":"261400","value":"阿勒泰","pinyin":"Ale tai","parent_id":"260000"},{"code":"261500","value":"阿拉尔","pinyin":"Ala er","parent_id":"260000"},{"code":"261600","value":"喀什","pinyin":"Kashi","parent_id":"260000"},{"code":"270100","value":"拉萨","pinyin":"Lasa","parent_id":"270000"},{"code":"270200","value":"林芝","pinyin":"Linzhi","parent_id":"270000"},{"code":"270300","value":"山南","pinyin":"Shannan","parent_id":"270000"},{"code":"270400","value":"那曲","pinyin":"Naqu","parent_id":"270000"},{"code":"270500","value":"昌都","pinyin":"Changdu","parent_id":"270000"},{"code":"270600","value":"阿里","pinyin":"Ali","parent_id":"270000"},{"code":"270700","value":"日喀则","pinyin":"Rikaze","parent_id":"270000"},{"code":"280100","value":"呼和浩特","pinyin":"Huhehaote","parent_id":"280000"},{"code":"280200","value":"赤峰","pinyin":"Chifeng","parent_id":"280000"},{"code":"280300","value":"乌海","pinyin":"Wuhai","parent_id":"280000"},{"code":"280400","value":"兴安","pinyin":"Xing an","parent_id":"280000"},{"code":"280500","value":"巴彦淖尔","pinyin":"Bayan Nur","parent_id":"280000"},{"code":"280600","value":"阿拉善","pinyin":"Alashan","parent_id":"280000"},{"code":"280700","value":"呼伦贝尔","pinyin":"Hulunbei er","parent_id":"280000"},{"code":"280800","value":"乌兰察布","pinyin":"Wulanchabu","parent_id":"280000"},{"code":"280900","value":"锡林郭勒","pinyin":"Xilinguole","parent_id":"280000"},{"code":"281000","value":"包头","pinyin":"Baotou","parent_id":"280000"},{"code":"281100","value":"通辽","pinyin":"Tongliao","parent_id":"280000"},{"code":"370100","value":"全国","pinyin":"Nationwide","parent_id":"370000"},{"code":"320100","value":"国外","pinyin":"Overseas","parent_id":"320000"},{"code":"181700","value":"东营","pinyin":"Dongying","parent_id":"180000"},{"code":"330100","value":"台北","pinyin":"Taibei","parent_id":"330000"},{"code":"072000","value":"揭阳","pinyin":"Jieyang","parent_id":"070000"},{"code":"131800","value":"济源","pinyin":"Jiyuan","parent_id":"130000"},{"code":"151100","value":"宜春","pinyin":"Yichun","parent_id":"150000"},{"code":"301700","value":"荆州","pinyin":"Jingzhou","parent_id":"300000"},{"code":"230500","value":"琼海","pinyin":"Qionghai","parent_id":"230000"},{"code":"140900","value":"延边","pinyin":"Yanbian","parent_id":"140000"},{"code":"221200","value":"防城港","pinyin":"Fangchenggang","parent_id":"220000"},{"code":"191000","value":"吕梁","pinyin":"Lvliang","parent_id":"190000"},{"code":"191100","value":"朔州","pinyin":"Shuozhou","parent_id":"190000"},{"code":"351700","value":"池州","pinyin":"Chizhou","parent_id":"350000"},{"code":"230600","value":"保亭","pinyin":"Baoting","parent_id":"230000"},{"code":"281200","value":"鄂尔多斯","pinyin":"E erduosi","parent_id":"280000"},{"code":"250500","value":"中卫","pinyin":"Zhongwei","parent_id":"250000"},{"code":"101900","value":"甘孜","pinyin":"Ganzi","parent_id":"100000"},{"code":"230700","value":"万宁","pinyin":"Wanning","parent_id":"230000"},{"code":"201000","value":"商洛","pinyin":"Shangluo","parent_id":"200000"},{"code":"072100","value":"云浮","pinyin":"Yunfu","parent_id":"070000"},{"code":"102000","value":"巴中","pinyin":"Bazhong","parent_id":"100000"},{"code":"102100","value":"眉山","pinyin":"Meishan","parent_id":"100000"},{"code":"042000","value":"綦江","pinyin":"Qijiang","parent_id":"040000"},{"code":"042100","value":"潼南","pinyin":"Tongnan","parent_id":"040000"},{"code":"042200","value":"铜梁","pinyin":"Tongliang","parent_id":"040000"},{"code":"042300","value":"大足","pinyin":"Dazu","parent_id":"040000"},{"code":"042400","value":"荣昌","pinyin":"Rongchang","parent_id":"040000"},{"code":"042500","value":"璧山","pinyin":"Bishan","parent_id":"040000"},{"code":"042600","value":"梁平","pinyin":"Liangping","parent_id":"040000"},{"code":"042700","value":"城口","pinyin":"Chengkou","parent_id":"040000"},{"code":"042800","value":"丰都","pinyin":"Fengdu","parent_id":"040000"},{"code":"042900","value":"垫江","pinyin":"Dianjiang","parent_id":"040000"},{"code":"043000","value":"武隆","pinyin":"Wulong","parent_id":"040000"},{"code":"043100","value":"忠县","pinyin":"Zhongxian","parent_id":"040000"},{"code":"043200","value":"开县","pinyin":"Kaixian","parent_id":"040000"},{"code":"043300","value":"云阳","pinyin":"Yunyang","parent_id":"040000"},{"code":"043400","value":"奉节","pinyin":"Fengjie","parent_id":"040000"},{"code":"043500","value":"巫山","pinyin":"Wushan","parent_id":"040000"},{"code":"043600","value":"巫溪","pinyin":"Wuxi","parent_id":"040000"},{"code":"043700","value":"石柱","pinyin":"Shizhu","parent_id":"040000"},{"code":"043800","value":"秀山","pinyin":"Xiushan","parent_id":"040000"},{"code":"043900","value":"酉江","pinyin":"Youyang","parent_id":"040000"},{"code":"044000","value":"彭水","pinyin":"Pengshui","parent_id":"040000"},{"code":"361300","value":"定西","pinyin":"Dingxi","parent_id":"360000"},{"code":"361400","value":"甘南","pinyin":"Gannan","parent_id":"360000"},{"code":"230800","value":"五指山","pinyin":"Wuzhishan","parent_id":"230000"},{"code":"230900","value":"文昌","pinyin":"Wenchang","parent_id":"230000"},{"code":"231000","value":"东方","pinyin":"Dongfang","parent_id":"230000"},{"code":"231100","value":"定安","pinyin":"Ding an","parent_id":"230000"},{"code":"231200","value":"屯昌","pinyin":"Tunchang","parent_id":"230000"},{"code":"231300","value":"澄迈","pinyin":"Chengmai","parent_id":"230000"},{"code":"231400","value":"临高","pinyin":"Lingao","parent_id":"230000"},{"code":"231500","value":"三沙","pinyin":"sansha","parent_id":"230000"},{"code":"231600","value":"白沙","pinyin":"Baisha","parent_id":"230000"},{"code":"231700","value":"昌江","pinyin":"Changjiang","parent_id":"230000"},{"code":"231800","value":"乐东","pinyin":"Ledong","parent_id":"230000"},{"code":"231900","value":"琼中","pinyin":"Qiongzhong","parent_id":"230000"},{"code":"330200","value":"高雄","pinyin":"Gaoxiong","parent_id":"330000"},{"code":"330300","value":"基隆","pinyin":"Jilong","parent_id":"330000"},{"code":"330400","value":"嘉义","pinyin":"Jiayi","parent_id":"330000"},{"code":"330500","value":"台南","pinyin":"Tainan","parent_id":"330000"},{"code":"330600","value":"台中","pinyin":"Taizhong","parent_id":"330000"},{"code":"330700","value":"新竹","pinyin":"Xinzhu","parent_id":"330000"},{"code":"221300","value":"贺州","pinyin":"Hezhou","parent_id":"220000"},{"code":"221400","value":"贵港","pinyin":"Guigang","parent_id":"220000"},{"code":"261700","value":"图木舒克","pinyin":"Tumushuke","parent_id":"260000"},{"code":"261800","value":"五家渠","pinyin":"Wujiaqu","parent_id":"260000"}]}}